LEMUR-2-JENNYBARNA      
1 42753U 17019C   17283.25289308  .00003439  00000-0  13588-3 0  9994
2 42753  51.6416 208.9598 0011237  36.7946 323.3803 15.28210082 18826
LEMUR-2-ROBMOORE        
1 42754U 17019D   17283.92057784  .00003750  00000-0  14834-3 0  9991
2 42754  51.6413 205.9114 0011145  41.5507 318.6317 15.27905133 18969
LEMUR-2-SPIROVISION     
1 42755U 17019E   17284.17602427  .00004333  00000-0  16836-3 0  9992
2 42755  51.6413 204.6168 0011236  42.5917 317.5932 15.28105531 18890
UCLSAT                  
1 42765U 17036A   17284.41340765  .00002397  00000-0  11091-3 0  9999
2 42765  97.4374 342.8593 0010955 222.2753 137.7639 15.21066288 16885
LITUANICASAT-2          
1 42768U 17036D   17284.09598899  .00003365  00000-0  15839-3 0  9999
2 42768  97.4373 342.3687 0015490 213.1149 146.9118 15.20135216 16705
LEMUR-2-SHAINAJOHL      
1 42771U 17036G   17284.54682759  .00002896  00000-0  13659-3 0  9998
2 42771  97.4372 342.8366 0014555 210.5746 149.4642 15.20191798 16710
LEMUR-2-XUENITERENCE    
1 42772U 17036H   17283.68763053  .00002247  00000-0  10660-3 0  9999
2 42772  97.4372 341.9968 0014157 213.1985 146.8363 15.20223544 16582
LEMUR-2-LUCYBRYCE       
1 42773U 17036J   17284.20858660  .00003132  00000-0  14672-3 0  9999
2 42773  97.4373 342.5240 0014067 210.6408 149.4007 15.20372074 16662
LEMUR-2-KUNGFOO         
1 42774U 17036K   17284.14363265  .00002469  00000-0  11659-3 0  9999
2 42774  97.4374 342.4613 0013974 211.1757 148.8651 15.20297126 16646
AALTO-1                 
1 42775U 17036L   17284.14120072  .00001538  00000-0  74024-4 0  9999
2 42775  97.4374 342.4616 0013579 210.1279 149.9176 15.20210598 16652
URSA MAIOR              
1 42776U 17036M   17284.40162305  .00001810  00000-0  86429-4 0  9999
2 42776  97.4376 342.7286 0013460 209.3287 150.7194 15.20258445 16696
COMPASS 2               
1 42777U 17036N   17283.91708126  .00002764  00000-0  12862-3 0  9990
2 42777  97.4386 342.3196 0012442 214.9852 145.0567 15.20724671 16615
LEMUR-2-LYNSEY-SYMO     
1 42779U 17036Q   17283.90168795  .00003057  00000-0  14087-3 0  9990
2 42779  97.4377 342.3279 0011873 221.6536 138.3797 15.20978061 16603
LEMUR-2-LISASAURUS      
1 42780U 17036R   17284.42825013  .00002888  00000-0  13351-3 0  9997
2 42780  97.4374 342.8432 0011752 219.8957 140.1416 15.20917373 16697
LEMUR-2-SAM-AMELIA      
1 42781U 17036S   17284.35886927  .00003438  00000-0  15788-3 0  9999
2 42781  97.4374 342.7817 0011726 220.3303 139.7064 15.21019197 16676
LEMUR-2-MCPEAKE         
1 42782U 17036T   17283.96206053  .00003033  00000-0  13952-3 0  9994
2 42782  97.4375 342.3974 0011542 221.2599 138.7765 15.21049669 16619
DIAMOND RED             
1 42783U 17036U   17283.89981952  .00001739  00000-0  81836-4 0  9993
2 42783  97.4376 342.3247 0011514 224.0418 135.9901 15.20838294 16614
PEGASUS                 
1 42784U 17036V   17283.96267739  .00002089  00000-0  97466-4 0  9997
2 42784  97.4377 342.3952 0011471 224.1850 135.8470 15.20920274 16623
DIAMOND GREEN           
1 42785U 17036W   17283.89879162  .00001867  00000-0  87677-4 0  9995
2 42785  97.4378 342.3291 0011405 224.4896 135.5424 15.20832191 16683
DIAMOND BLUE            
1 42786U 17036X   17283.89664125  .00001551  00000-0  73401-4 0  9997
2 42786  97.4378 342.3310 0011238 224.8036 135.2293 15.20810980 16683
NUDTSAT                 
1 42787U 17036Y   17283.81995084  .00002834  00000-0  13013-3 0  9998
2 42787  97.4374 342.2798 0011154 224.4756 135.5585 15.21175066 16442
SUCHAI                  
1 42788U 17036Z   17283.88907938  .00002260  00000-0  10475-3 0  9999
2 42788  97.4372 342.3391 0011115 224.2193 135.8155 15.21065506 16680
SKCUBE                  
1 42789U 17036AA  17283.82079403  .00002146  00000-0  99548-4 0  9993
2 42789  97.4371 342.2762 0010960 224.3861 135.6496 15.21084182 16598
VZLUSAT-1               
1 42790U 17036AB  17283.68272606  .00002637  00000-0  12116-3 0  9999
2 42790  97.4370 342.1518 0010667 225.2118 134.8251 15.21215699 16573
ROBUSTA-1B              
1 42792U 17036AD  17284.33800748  .00002492  00000-0  11466-3 0  9994
2 42792  97.4370 342.8038 0010526 223.4849 136.5557 15.21220053 16684
CICERO 6                
1 42793U 17036AE  17283.93136311  .00001704  00000-0  79203-4 0  9997
2 42793  97.4371 342.4283 0009511 225.8393 134.2062 15.21315204 16696
D-SAT                   
1 42794U 17036AF  17284.49593577  .00000564  00000-0  54780-4 0  9997
2 42794  97.6295 343.0389 0128239  29.9749 330.8732 14.90664215 16675
TOKI                    
1 42820U 98067MU  17284.16953113  .00017802  00000-0  23856-3 0  9992
2 42820  51.6376 178.7107 0001500 319.1104  40.9775 15.58053899 14912
GHANASAT-1              
1 42821U 98067MV  17284.10954348  .00016428  00000-0  22172-3 0  9991
2 42821  51.6377 179.0600 0001561 324.8880  35.2009 15.57928907 14880
MAZAALAI (NUMSAT-1)     
1 42822U 98067MW  17284.17431355  .00017557  00000-0  23626-3 0  9996
2 42822  51.6378 178.7431 0001572 329.9905  30.0997 15.57952790 14893
BRAC ONNESHA            
1 42823U 98067MX  17284.17632158  .00018206  00000-0  24470-3 0  9991
2 42823  51.6383 178.7589 0005022 346.0866  13.9987 15.57948239 14896
NIGERIAEDUSAT-1         
1 42824U 98067MY  17283.92354147  .00015789  00000-0  21386-3 0  9999
2 42824  51.6385 180.0710 0004895 346.6380  13.4482 15.57859655 14871
LEMUR-2-GREENBERG       
1 42837U 17042N   17283.91955625  .00000889  00000-0  94984-4 0  9994
2 42837  97.6077 190.4758 0012276 312.9195  47.0993 14.91112403 13208
LEMUR-2-ANDIS           
1 42838U 17042P   17284.52216876  .00000919  00000-0  97959-4 0  9990
2 42838  97.6077 191.0594 0012302 310.6930  49.3219 14.91132067 13299
LEMUR-2-MONSON          
1 42839U 17042Q   17284.51656658  .00000682  00000-0  74008-4 0  9993
2 42839  97.6076 191.0660 0011991 309.6039  50.4120 14.91203778 13296
LEMUR-2-FURIAUS         
1 42840U 17042R   17284.51425167  .00001060  00000-0  11185-3 0  9991
2 42840  97.6075 191.0682 0012112 310.2826  49.7333 14.91269754 13281
LEMUR-2-PETERG          
1 42841U 17042S   17284.50638295  .00001176  00000-0  12304-3 0  9991
2 42841  97.6076 191.0792 0011761 308.8317  51.1851 14.91399456 13298
LEMUR-2-DEMBITZ         
1 42842U 17042T   17284.50505824  .00000917  00000-0  97120-4 0  9995
2 42842  97.6075 191.0794 0011777 309.3895  50.6281 14.91420992 13295
LEMUR-2-ZACHARY         
1 42845U 17042W   17284.49187311  .00000974  00000-0  10226-3 0  9997
2 42845  97.6025 191.0366 0012219 314.4922  45.5297 14.91620779 13282
FLOCK 2K-03             
1 42850U 17042AB  17284.18744249  .00010197  00000-0  31366-3 0  9994
2 42850  96.9941 188.4175 0010061 303.0318  56.9959 15.33797233 13425
FLOCK 2K-04             
1 42851U 17042AC  17284.51627364  .00014020  00000-0  43098-3 0  9994
2 42851  96.9946 188.7255 0009838 303.4184  56.6118 15.33744337 13474
FLOCK 2K-01             
1 42852U 17042AD  17283.73210720  .00009030  00000-0  27871-3 0  9998
2 42852  96.9944 187.9845 0009726 305.6185  54.4152 15.33727115 13356
FLOCK 2K-02             
1 42853U 17042AE  17284.52479082  .00003394  00000-0  10875-3 0  9998
2 42853  96.9953 188.7185 0010215 299.5649  60.4575 15.32958225 13470
FLOCK 2K-47             
1 42854U 17042AF  17283.72930762  .00009192  00000-0  28314-3 0  9996
2 42854  96.9943 187.9860 0009601 304.5736  55.4601 15.33784513 13351
FLOCK 2K-48             
1 42855U 17042AG  17284.18514848  .00011076  00000-0  34001-3 0  9995
2 42855  96.9946 188.4234 0009553 302.7107  57.3215 15.33846035 13422
FLOCK 2K-45             
1 42856U 17042AH  17283.72689345  .00009195  00000-0  28278-3 0  9998
2 42856  96.9944 187.9906 0009622 303.4139  56.6184 15.33837506 13353
FLOCK 2K-24             
1 42857U 17042AJ  17283.72585990  .00006357  00000-0  19631-3 0  9990
2 42857  96.9945 187.9903 0009381 302.3534  57.6801 15.33828273 13359
FLOCK 2K-46             
1 42858U 17042AK  17284.18129190  .00003865  00000-0  12014-3 0  9997
2 42858  96.9946 188.4291 0009550 300.6951  59.3351 15.33858892 13426
FLOCK 2K-23             
1 42859U 17042AL  17283.72373868  .00007132  00000-0  21958-3 0  9998
2 42859  96.9946 187.9964 0009726 303.2301  56.8010 15.33879837 13359
FLOCK 2K-21             
1 42860U 17042AM  17284.17852804  .00008668  00000-0  26630-3 0  9999
2 42860  96.9946 188.4311 0009576 299.7965  60.2326 15.33887291 13421
FLOCK 2K-22             
1 42861U 17042AN  17283.72929939  .00009187  00000-0  28521-3 0  9992
2 42861  96.9949 187.9911 0009736 300.1999  59.8280 15.33535656 13357
FLOCK 2K-07             
1 42862U 17042AP  17283.72015031  .00008977  00000-0  27538-3 0  9995
2 42862  96.9946 188.0011 0009724 301.5430  58.4863 15.33922323 13364
FLOCK 2K-08             
1 42863U 17042AQ  17284.17442488  .00008735  00000-0  26781-3 0  9997
2 42863  96.9943 188.4333 0009667 299.5839  60.4441 15.33949852 13426
FLOCK 2K-05             
1 42864U 17042AR  17283.71903691  .00007825  00000-0  24088-3 0  9992
2 42864  96.9946 188.0016 0009823 301.1334  58.8946 15.33852211 13353
FLOCK 2K-40             
1 42865U 17042AS  17283.71647263  .00009056  00000-0  27751-3 0  9991
2 42865  96.9946 188.0056 0009664 301.5813  58.4486 15.33954379 13350
FLOCK 2K-39             
1 42866U 17042AT  17283.71558905  .00008368  00000-0  25642-3 0  9998
2 42866  96.9944 188.0050 0009713 300.9021  59.1267 15.33977491 13357
FLOCK 2K-37             
1 42867U 17042AU  17283.71392813  .00006531  00000-0  20046-3 0  9996
2 42867  96.9947 188.0077 0009802 301.6953  58.3335 15.34009223 13358
FLOCK 2K-38             
1 42868U 17042AV  17284.16811822  .00005172  00000-0  15894-3 0  9998
2 42868  96.9947 188.4437 0009794 299.6878  60.3390 15.34063548 13427
FLOCK 2K-31             
1 42869U 17042AW  17283.70962624  .00006829  00000-0  20932-3 0  9994
2 42869  96.9944 188.0123 0009942 300.1345  59.8912 15.34034452 13352
